OUFTI-1                 
1 41458U 16025C   22261.43393095  .00010116  00000+0  41228-3 0  9993
2 41458  98.1939  75.2685 0136101 308.7825  50.1311 15.16512697351666
E-ST@R-II               
1 41459U 16025D   22261.71989248  .00009838  00000+0  41220-3 0  9997
2 41459  98.1931  73.9550 0139465 312.5785  46.3734 15.15257717351618
AAUSAT 4                
1 41460U 16025E   22261.50377584  .00018859  00000+0  67698-3 0  9990
2 41460  98.1846  80.8408 0117813 286.3017  72.5283 15.22324538352089
AIST-2D (RS-48)         
1 41465U 16026B   22261.42047025  .00007799  00000+0  17637-3 0  9990
2 41465  97.0408 134.6951 0010073 142.8427 322.0646 15.43364601357863
NUSAT-1 (FRESCO)        
1 41557U 16033B   22261.83387726  .00015873  00000+0  44353-3 0  9997
2 41557  97.3897 359.8253 0011230  48.1934 104.7035 15.36718737351713
NUSAT-2 (BATATA)        
1 41558U 16033C   22261.87075414  .00016455  00000+0  43270-3 0  9994
2 41558  97.4115   6.0905 0010282  38.6718  78.6470 15.38604283352000
CARTOSAT-2C             
1 41599U 16040A   22261.21302690  .00003975  00000+0  19190-3 0  9991
2 41599  97.4768 319.9630 0012920 216.7460 227.5641 15.19177396346012
SATHYABAMASAT           
1 41600U 16040B   22261.68862754  .00021747  00000+0  62943-3 0  9998
2 41600  97.2109 312.0154 0011649 140.9295 219.2793 15.35541771347194
LAPAN-A3                
1 41603U 16040E   22261.80802963  .00001513  00000+0  71329-4 0  9999
2 41603  97.1994 294.7464 0012713 185.1609 292.7189 15.20886538346226
BIROS                   
1 41604U 16040F   22261.13311354  .00004112  00000+0  16774-3 0  9995
2 41604  97.2028 302.0487 0012229 157.4996 202.6781 15.24901723346582
SWAYAM                  
1 41607U 16040J   22261.69991877  .00018748  00000+0  56318-3 0  9991
2 41607  97.2064 310.1244 0011727 141.0385 219.1706 15.34399291347065
BEESAT-4                
1 41619U 16040W   22261.37530074  .00014675  00000+0  45649-3 0  9997
2 41619  97.2077 309.6142 0010384 137.4580 222.7469 15.33356914334950
3CAT-2                  
1 41732U 16051B   22261.74430473  .00014065  00000+0  41183-3 0  9990
2 41732  97.3767 184.8661 0009493 328.7392  87.0897 15.35297991339635
PRATHAM                 
1 41783U 16059A   22261.82801725  .00000347  00000+0  75437-4 0  9993
2 41783  97.9060 299.6096 0032203 237.6141 122.1945 14.63426105319280
ALSAT 1N                
1 41789U 16059G   22261.87063385  .00000544  00000+0  11022-3 0  9994
2 41789  97.9087 304.4414 0027233 218.9150 141.0086 14.64773816319543
LISHUI 1-01             
1 41845U 16066E   22261.88398722  .00081497  00000+0  72117-2 0  9999
2 41845  98.7320  40.7732 0199890 134.3576 227.1790 14.81847689310627
CARTOSAT-2D             
1 41948U 17008A   22261.82313524  .00003666  00000+0  17724-3 0  9997
2 41948  97.4556 320.3497 0006831   7.3194 352.8237 15.19228640309970
NAYIF-1 (EO-88)         
1 42017U 17008BX  22261.72976202  .00020629  00000+0  56587-3 0  9990
2 42017  97.2596 326.6128 0003178 263.9588  96.1295 15.37295049311396
ZHUHAI-1 02 (CAS-4B)    
1 42759U 17034B   22261.84747206  .00005120  00000+0  30141-3 0  9992
2 42759  43.0164 177.6956 0008531 163.1054 304.1240 15.12485262290499
ZHUHAI-1 01 (CAS-4A)    
1 42761U 17034D   22261.81059699  .00005038  00000+0  29614-3 0  9995
2 42761  43.0170 176.6194 0008929 166.5343 293.7247 15.12567421290499
UCLSAT                  
1 42765U 17036A   22261.61079365  .00013875  00000+0  45560-3 0  9997
2 42765  97.1899 301.4320 0008457   4.0380 356.0928 15.31652962291512
NIUSAT                  
1 42766U 17036B   22261.64410497  .00010103  00000+0  37466-3 0  9993
2 42766  97.1953 296.1816 0012941   4.8830 355.2533 15.27716911291024
CARTOSAT-2E             
1 42767U 17036C   22261.85210840  .00003497  00000+0  16908-3 0  9993
2 42767  97.4446 321.0961 0008791  57.2945   1.4367 15.19236255290541
LITUANICASAT-2          
1 42768U 17036D   22261.07455127  .00029837  00000+0  75061-3 0  9998
2 42768  97.1969 304.6519 0008005 341.1575  18.9374 15.39858988291487
AALTO-1                 
1 42775U 17036L   22261.34187396  .00006496  00000+0  24960-3 0  9994
2 42775  97.1909 295.6401 0012050   6.2905 353.8484 15.26694260290949
URSA MAIOR              
1 42776U 17036M   22261.67861857  .00007984  00000+0  29997-3 0  9990
2 42776  97.1922 296.7929 0011602   3.9519 356.1810 15.27370134291031
COMPASS 2               
1 42777U 17036N   22261.38761686  .00018875  00000+0  54939-3 0  9993
2 42777  97.1964 303.8125 0007966 348.5220  11.5841 15.35429918291390
MAX VALIER SAT          
1 42778U 17036P   22261.66594381  .00008677  00000+0  31713-3 0  9995
2 42778  97.1978 299.6009 0010206   5.7115 354.4239 15.28269721291133
PEGASUS                 
1 42784U 17036V   22261.06832970  .00011773  00000+0  39965-3 0  9993
2 42784  97.1911 300.0640 0009521   8.6203 351.5200 15.30607253291172
NUDTSAT                 
1 42787U 17036Y   22261.64044972  .00024948  00000+0  69370-3 0  9998
2 42787  97.1937 305.4937 0007314 352.0790   8.0338 15.36811040291393
SUCHAI                  
1 42788U 17036Z   22261.66404774  .00015995  00000+0  50620-3 0  9991
2 42788  97.1919 302.5494 0008366   1.1708 358.9552 15.32805863291453
SKCUBE                  
1 42789U 17036AA  22261.45116690  .00013861  00000+0  45268-3 0  9998
2 42789  97.1917 301.6915 0008604   3.1239 357.0055 15.31827463291307
VZLUSAT-1               
1 42790U 17036AB  22261.33299555  .00020521  00000+0  57598-3 0  9999
2 42790  97.1938 305.1373 0006759 354.1661   5.9504 15.36560820291490
ROBUSTA-1B              
1 42792U 17036AD  22261.11026912  .00014387  00000+0  46010-3 0  9992
2 42792  97.1918 301.9999 0008126   4.8409 355.2910 15.32497214291301
D-SAT                   
1 42794U 17036AF  22261.51760786  .00001341  00000+0  11628-3 0  9995
2 42794  97.4555 262.0516 0123548 132.9796 228.1863 14.92969905285363
NORSAT 2                
1 42828U 17042D   22261.52031917  .00002162  00000+0  21189-3 0  9993
2 42828  97.4200 112.6593 0015214  55.7595 304.5065 14.93137610282059
TECHNOSAT               
1 42829U 17042E   22261.57622763  .00001119  00000+0  11511-3 0  9993
2 42829  97.4114 110.2470 0015349  59.0895 301.1832 14.92050484281978
2017-042F               
1 42830U 17042F   22261.54586140  .00005552  00000+0  50279-3 0  9999
2 42830  97.4251 115.2229 0014610  48.2394 312.0074 14.95674254282197
FLYING LAPTOP           
1 42831U 17042G   22261.29069509  .00001397  00000+0  14296-3 0  9999
2 42831  97.4138 110.3127 0015217  60.5661 299.7019 14.91933432281936
CORVUS BC2              
1 42846U 17042X   22261.17355944  .00001081  00000+0  10868-3 0  9994
2 42846  97.4123 113.1986 0010643  51.9647 308.2533 14.93088605282119
CORVUS BC1              
1 42847U 17042Y   22261.85091313  .00000987  00000+0  99450-4 0  9996
2 42847  97.4124 114.1588 0010300  49.2607 310.9506 14.93187016282224
CZ-4C R/B               
1 43012U 17072C   22261.36575898  .00000256  00000+0  63216-4 0  9995
2 43012  98.6901 301.4428 0127737  33.7850 327.1404 14.56397128257382
RADFXSAT (FOX-1B)       
1 43017U 17073E   22261.70027764  .00003243  00000+0  24655-3 0  9995
2 43017  97.6608 152.0585 0245157 242.1830 115.4344 14.82017287260924
EAGLESAT 1              
1 43018U 17073F   22261.69322062  .00004682  00000+0  33928-3 0  9994
2 43018  97.6639 154.1919 0236562 235.0376 122.8420 14.84660821260926
INS-1C                  
1 43116U 18004F   22261.78911555  .00013509  00000+0  44133-3 0  9997
2 43116  97.3691 337.2297 0007839  31.9575 328.2141 15.31834927260611
FLOCK 3P'-3             
1 43119U 18004J   22261.70773521  .00006269  00000+0  23070-3 0  9993
2 43119  97.3681 334.7183 0009891  43.5540 316.6479 15.28174948260453
FLOCK 3P'-2             
1 43120U 18004K   22261.15030692  .00005998  00000+0  22356-3 0  9993
2 43120  97.3686 333.7301 0009745  47.2515 312.9543 15.27771086260335
FLOCK 3P'-1             
1 43121U 18004L   22261.48693140  .00031187  00000+0  75946-3 0  9995
2 43121  97.3724 340.5568 0005886  20.5166 339.6315 15.40857983260742
FLOCK 3P'-4             
1 43122U 18004M   22261.72615446  .00006288  00000+0  23430-3 0  9991
2 43122  97.3694 334.4780 0009649  47.2357 312.9692 15.27763711260423
MICROMAS-2A             
1 43131U 18004W   22261.77538989  .00030413  00000+0  75814-3 0  9992
2 43131  97.3690 341.4917 0005569  24.5135 335.6375 15.40153054260921
PICSAT                  
1 43132U 18004X   22261.47658953  .00016627  00000+0  51329-3 0  9990
2 43132  97.3652 337.4494 0007696  37.8031 322.3751 15.33600298260650
CNUSAIL-1               
1 43133U 18004Y   22261.14759676  .00009887  00000+0  34240-3 0  9992
2 43133  97.3605 334.6147 0008744  43.4041 316.7886 15.30018802260468
2018-004Z               
1 43134U 18004Z   22261.16902563  .00012292  00000+0  39952-3 0  9999
2 43134  97.3632 336.2110 0008075  40.9626 319.2221 15.32020155260552
FOX-1D (AO-92)          
1 43137U 18004AC  22261.15441181  .00010696  00000+0  35994-3 0  9993
2 43137  97.3616 335.5388 0008112  43.0402 317.1472 15.30932823260528
STEP CUBE LAB           
1 43138U 18004AD  22261.77043310  .00025136  00000+0  68272-3 0  9994
2 43138  97.3689 340.5580 0006298  32.7662 327.3972 15.37549127260868
XIAOXIANG-2             
1 43155U 18008A   22261.84462398  .00008044  00000+0  41598-3 0  9997
2 43155  97.3432 317.2614 0016032 174.2074 307.9563 15.16401811257420
ZHOU ENLAI              
1 43156U 18008B   22261.80349811  .00007929  00000+0  41279-3 0  9995
2 43156  97.3484 317.1279 0013415 174.5969 293.6749 15.16201366257343
QUANTUTONG 1            
1 43158U 18008D   22261.72481188  .00007145  00000+0  38497-3 0  9990
2 43158  97.3448 314.8338 0012007 174.5100 302.6644 15.15036223257227
S-NET D                 
1 43186U 18014G   22261.27404661  .00002021  00000+0  17517-3 0  9997
2 43186  97.6468 165.2111 0010119 355.1419   4.9704 14.98180257252818
